IRIDIUM 135             
1 43070U 17083A   26204.22188922 -.00000030  00000+0 -17785-4 0  9997
2 43070  86.3986 306.9539 0002120  95.1025 265.0413 14.34217176449316
IRIDIUM 138             
1 43071U 17083B   26204.17748963  .00000116  00000+0  34377-4 0  9998
2 43071  86.3999 306.6732 0002089  96.3457 263.7977 14.34217905449296
IRIDIUM 116             
1 43072U 17083C   26204.21554683  .00000197  00000+0  63233-4 0  9990
2 43072  86.3984 306.9419 0002541  96.4029 263.7456 14.34218288449337
IRIDIUM 130             
1 43073U 17083D   26204.25360132  .00000150  00000+0  46647-4 0  9998
2 43073  86.3993 307.2049 0002340  99.9467 260.1993 14.34218537449280
IRIDIUM 151             
1 43074U 17083E   26204.15846232  .00000100  00000+0  28765-4 0  9994
2 43074  86.3987 307.0243 0002281  94.8990 265.2467 14.34218326449296
IRIDIUM 134             
1 43075U 17083F   26204.26628674  .00000001  00000+0 -66035-5 0  9999
2 43075  86.3987 306.9878 0002161  96.5992 263.5450 14.34217550449276
IRIDIUM 137             
1 43076U 17083G   26204.20920434  .00000012  00000+0 -28269-5 0  9992
2 43076  86.3988 307.1052 0002515  89.5289 270.6195 14.34217628449337
IRIDIUM 141             
1 43077U 17083H   26204.27262898  .00000178  00000+0  56588-4 0  9999
2 43077  86.3984 306.9073 0002168  94.2616 265.8828 14.34218605449341
IRIDIUM 153             
1 43078U 17083J   26204.15503927  .00000020  00000+0  46898-7 0  9990
2 43078  86.3952 275.4337 0002045  96.7426 263.4003 14.34217619450435
IRIDIUM 131             
1 43079U 17083K   26204.25994395  .00000051  00000+0  11241-4 0  9990
2 43079  86.3991 307.1010 0002199  93.3263 266.8184 14.34218042449270
IRIDIUM 144             
1 43249U 18030A   26204.16138202  .00000112  00000+0  33010-4 0  9995
2 43249  86.3950 275.3597 0002408  95.7209 264.4262 14.34218078435296
IRIDIUM 149             
1 43250U 18030B   26204.16772458  .00000028  00000+0  30323-5 0  9995
2 43250  86.3946 275.3235 0002230  93.8264 266.3186 14.34217834435313
IRIDIUM 157             
1 43251U 18030C   26204.18675242  .00000061  00000+0  14840-4 0  9993
2 43251  86.3949 275.3695 0002260  94.6153 265.5301 14.34218058435292
IRIDIUM 140             
1 43252U 18030D   26204.20578030  .00000092  00000+0  25716-4 0  9992
2 43252  86.3949 275.3742 0002277  96.2263 263.9193 14.34218150435355
IRIDIUM 145             
1 43253U 18030E   26204.19309592  .00000066  00000+0  16443-4 0  9994
2 43253  86.3947 275.3513 0002600  95.9152 264.2341 14.34217881435284
IRIDIUM 146             
1 43254U 18030F   26204.17406826  .00000031  00000+0  41034-5 0  9998
2 43254  86.3949 275.3717 0002375  94.7434 265.4033 14.34217657435295
IRIDIUM 148             
1 43255U 18030G   26204.21212293  .00000075  00000+0  19566-4 0  9999
2 43255  86.3951 275.3996 0002311  92.9070 267.2390 14.34218261435337
IRIDIUM 142             
1 43256U 18030H   26204.18041013  .00000175  00000+0  55522-4 0  9999
2 43256  86.3947 275.3003 0002447  95.1380 265.0095 14.34218575435292
IRIDIUM 150             
1 43257U 18030J   26204.14869808  .00000024  00000+0  15667-5 0  9996
2 43257  86.3949 275.4310 0002353  95.7215 264.4249 14.34217288435313
IRIDIUM 143             
1 43258U 18030K   26204.19943796  .00000023  00000+0  11458-5 0  9994
2 43258  86.3952 275.5037 0002368  95.7304 264.4162 14.34217840435251
IRIDIUM 161             
1 43478U 18047C   26204.15170865  .00000241  00000+0  65752-4 0  9998
2 43478  86.4453  73.4288 0002117  80.7627 279.3814 14.43278680430320
IRIDIUM 152             
1 43479U 18047D   26204.17215558 -.00000041  00000+0 -21741-4 0  9990
2 43479  86.3924  73.2813 0001962  84.3346 275.8073 14.34217250427645
IRIDIUM 147             
1 43480U 18047E   26204.17849852  .00000011  00000+0 -32745-5 0  9995
2 43480  86.3931  73.2848 0002305  87.0723 273.0736 14.34217565427649
IRIDIUM 110             
1 43481U 18047F   26204.18483899  .00000156  00000+0  48663-4 0  9996
2 43481  86.3933  73.3750 0001963  79.0766 281.0651 14.34217982427639
IRIDIUM 162             
1 43482U 18047G   26204.14539874  .00000248  00000+0  67795-4 0  9997
2 43482  86.4453  73.3219 0002175  86.7843 273.3606 14.43281520430317
IRIDIUM 160             
1 43569U 18061A   26204.27021257  .00000114  00000+0  33486-4 0  9996
2 43569  86.3938  41.7027 0002187  87.0743 273.0703 14.34218313418548
IRIDIUM 166             
1 43570U 18061B   26204.08628007 -.00000049  00000+0 -24506-4 0  9995
2 43570  86.3931  41.7298 0002186  89.9295 270.2152 14.34216809418540
IRIDIUM 158             
1 43571U 18061C   26204.26387050  .00000163  00000+0  51297-4 0  9998
2 43571  86.3936  41.6652 0002110  89.6604 270.4834 14.34218554418534
IRIDIUM 165             
1 43572U 18061D   26204.07993626  .00000132  00000+0  39983-4 0  9994
2 43572  86.3941  41.7894 0002266  90.1387 270.0068 14.34218168418533
IRIDIUM 155             
1 43573U 18061E   26204.25118549  .00000060  00000+0  14436-4 0  9994
2 43573  86.3934  41.5848 0002198  91.0810 269.0638 14.34217967418524
